GLOBALSTAR M075         
1 37192U 10054E   25340.06255983 -.00000082  00000+0  11885-3 0  9990
2 37192  51.9968  18.2131 0000355 111.5098 266.0314 12.62270161697558
GLOBALSTAR M073         
1 37193U 10054F   25340.24840611 -.00000090  00000+0  78933-4 0  9996
2 37193  52.0068 291.6014 0000595  31.5657 108.8369 12.62264808699564
GLOBALSTAR M083         
1 37739U 11033A   25340.10483084 -.00000063  00000+0  22999-3 0  9992
2 37739  51.9851 240.5313 0000762  54.6456  94.9682 12.62265245668567
GLOBALSTAR M088         
1 37740U 11033B   25340.29681682 -.00000107  00000+0 -16010-4 0  9996
2 37740  52.0189 145.9055 0001106 101.9114 319.7025 12.62270976664131
GLOBALSTAR M091         
1 37741U 11033C   25340.29863542 -.00000100  00000+0  18358-4 0  9993
2 37741  51.9991 109.1509 0000818 121.9606 247.3249 12.62262448664920
GLOBALSTAR M085         
1 37742U 11033D   25340.20923867 -.00000095  00000+0  49949-4 0  9995
2 37742  52.0147  60.5461 0000500 146.1239 237.3941 12.62267060665421
GLOBALSTAR M081         
1 37743U 11033E   25340.23435332 -.00000099  00000+0  25563-4 0  9994
2 37743  51.9972  63.1238 0000455 120.8652 257.3280 12.62270620665574
GLOBALSTAR M089         
1 37744U 11033F   25340.11808906 -.00000085  00000+0  10207-3 0  9996
2 37744  51.9953  17.6741 0000549  81.8296 308.5536 12.62261810666408
